STARLINK-4119           
1 53026U 22076AS  26068.33061059 -.00000788  00000+0 -31460-4 0  9994
2 53026  53.2168  85.6282 0001388  96.2514 263.8637 15.08835292202935
SEDNA-2                 
1 63153U 25009DQ  26068.79893845  .00008085  00000+0  49393-3 0  9990
2 63153  97.4615 144.8075 0010309  53.0260 307.1912 15.10492622 63116
